{"type": "FeatureCollection", "features": [ {"type": "Feature", "properties": {"norad_id": 28649, "name": "IRS-P5 (CARTOSAT-1)", "group": "resource", "lat": 2.876080938209394, "lon": 8.674495991774831, "alt_km": 598.6451623973071, "timestamp": "2025-12-08T10:52:02.605791+00:00", "meta": {"OBJECT_NAME": "IRS-P5 (CARTOSAT-1)", "OBJECT_ID": "2005-017A", "EPOCH": "2025-12-07T23:34:30.489312", "MEAN_MOTION": 14.90380424, "ECCENTRICITY": 0.00015379, "INCLINATION": 97.5494, "RA_OF_ASC_NODE": 8.6066, "ARG_OF_PERICENTER": 49.5353, "MEAN_ANOMALY": 310.6, "EPHEMERIS_TYPE": 0, "CLASSIFICATION_TYPE": "U", "NORAD_CAT_ID": 28649, "ELEMENT_SET_NO": 999, "REV_AT_EPOCH": 11533, "BSTAR": 0.00023611803, "MEAN_MOTION_DOT": 2.246e-05, "MEAN_MOTION_DDOT": 0}, "tle": {"line1": "1 28649U 05017A   25341.98229733  .00002246  00000+0  23612-3 0  9990", "line2": "2 28649  97.5494   8.6066 0001537  49.5353 310.6000 14.90380424115338"}}, "geometry": {"type": "Point", "coordinates": [8.674495991774831, 2.876080938209394]}}, {"type": "Feature", "properties": {"norad_id": 28893, "name": "SINAH 1", "group": "resource", "lat": 42.738438291177815, "lon": 103.28434386962861, "alt_km": 679.8882724695723, "timestamp": "2025-12-08T10:52:02.605802+00:00", "meta": {"OBJECT_NAME": "SINAH 1", "OBJECT_ID": "2005-043D", "EPOCH": "2025-12-07T23:11:14.331840", "MEAN_MOTION": 14.63953827, "ECCENTRICITY": 0.00150834, "INCLINATION": 98.2601, "RA_OF_ASC_NODE": 110.5107, "ARG_OF_PERICENTER": 151.2224, "MEAN_ANOMALY": 208.9814, "EPHEMERIS_TYPE": 0, "CLASSIFICATION_TYPE": "U", "NORAD_CAT_ID": 28893, "ELEMENT_SET_NO": 999, "REV_AT_EPOCH": 7254, "BSTAR": 0.00017154989, "MEAN_MOTION_DOT": 8.5e-06, "MEAN_MOTION_DDOT": 0}, "tle": {"line1": "1 28893U 05043D   25341.96613810  .00000850  00000+0  17155-3 0  9995", "line2": "2 28893  98.2601 110.5107 0015083 151.2224 208.9814 14.63953827 72545"}}, "geometry": {"type": "Point", "coordinates": [103.28434386962861, 42.738438291177815]}}, {"type": "Feature", "properties": {"norad_id": 29079, "name": "EROS B", "group": "resource", "lat": -77.0057720623274, "lon": -115.1782961885443, "alt_km": 374.90013874643137, "timestamp": "2025-12-08T10:52:02.605820+00:00", "meta": {"OBJECT_NAME": "EROS B", "OBJECT_ID": "2006-014A", "EPOCH": "2025-12-07T21:29:55.894848", "MEAN_MOTION": 15.66384008, "ECCENTRICITY": 0.0001723, "INCLINATION": 97.3487, "RA_OF_ASC_NODE": 98.2457, "ARG_OF_PERICENTER": 267.5718, "MEAN_ANOMALY": 92.5345, "EPHEMERIS_TYPE": 0, "CLASSIFICATION_TYPE": "U", "NORAD_CAT_ID": 29079, "ELEMENT_SET_NO": 999, "REV_AT_EPOCH": 9004, "BSTAR": 0.0015661072, "MEAN_MOTION_DOT": 0.001651, "MEAN_MOTION_DDOT": 0}, "tle": {"line1": "1 29079U 06014A   25341.89578582  .00165100  00000+0  15661-2 0  9998", "line2": "2 29079  97.3487  98.2457 0001723 267.5718  92.5345 15.66384008 90043"}}, "geometry": {"type": "Point", "coordinates": [-115.1782961885443, -77.0057720623274]}}, {"type": "Feature", "properties": {"norad_id": 29228, "name": "RESURS-DK 1", "group": "resource", "lat": -57.12559283945903, "lon": 78.47574396014099, "alt_km": 531.8442949585015, "timestamp": "2025-12-08T10:52:02.605843+00:00", "meta": {"OBJECT_NAME": "RESURS-DK 1", "OBJECT_ID": "2006-021A", "EPOCH": "2025-12-07T19:16:15.140928", "MEAN_MOTION": 15.12120613, "ECCENTRICITY": 0.00076752, "INCLINATION": 69.9343, "RA_OF_ASC_NODE": 114.5957, "ARG_OF_PERICENTER": 262.626, "MEAN_ANOMALY": 97.4034, "EPHEMERIS_TYPE": 0, "CLASSIFICATION_TYPE": "U", "NORAD_CAT_ID": 29228, "ELEMENT_SET_NO": 999, "REV_AT_EPOCH": 7363, "BSTAR": 0.00029966628, "MEAN_MOTION_DOT": 5.073e-05, "MEAN_MOTION_DDOT": 0}, "tle": {"line1": "1 29228U 06021A   25341.80295302  .00005073  00000+0  29967-3 0  9996", "line2": "2 29228  69.9343 114.5957 0007675 262.6260  97.4034 15.12120613 73638"}}, "geometry": {"type": "Point", "coordinates": [78.47574396014099, -57.12559283945903]}}, {"type": "Feature", "properties": {"norad_id": 29268, "name": "ARIRANG-2 (KOMPSAT-2)", "group": "resource", "lat": -58.2674108166652, "lon": -176.01304539434958, "alt_km": 676.8943239753626, "timestamp": "2025-12-08T10:52:02.605865+00:00", "meta": {"OBJECT_NAME": "ARIRANG-2 (KOMPSAT-2)", "OBJECT_ID": "2006-031A", "EPOCH": "2025-12-07T22:37:46.828704", "MEAN_MOTION": 14.64486879, "ECCENTRICITY": 0.00137126, "INCLINATION": 97.827, "RA_OF_ASC_NODE": 170.6499, "ARG_OF_PERICENTER": 325.0696, "MEAN_ANOMALY": 169.2275, "EPHEMERIS_TYPE": 0, "CLASSIFICATION_TYPE": "U", "NORAD_CAT_ID": 29268, "ELEMENT_SET_NO": 999, "REV_AT_EPOCH": 3348, "BSTAR": 0.00012938866, "MEAN_MOTION_DOT": 6.41e-06, "MEAN_MOTION_DDOT": 0}, "tle": {"line1": "1 29268U 06031A   25341.94290311  .00000641  00000+0  12939-3 0  9998", "line2": "2 29268  97.8270 170.6499 0013712 325.0696 169.2275 14.64486879 33480"}}, "geometry": {"type": "Point", "coordinates": [-176.01304539434958, -58.2674108166652]}}, {"type": "Feature", "properties": {"norad_id": 29709, "name": "LAPAN-TUBSAT", "group": "resource", "lat": -81.82152084437199, "lon": 68.75794799651727, "alt_km": 628.3940632660042, "timestamp": "2025-12-08T10:52:02.605879+00:00", "meta": {"OBJECT_NAME": "LAPAN-TUBSAT", "OBJECT_ID": "2007-001A", "EPOCH": "2025-12-07T22:20:43.009440", "MEAN_MOTION": 14.85658857, "ECCENTRICITY": 0.00136421, "INCLINATION": 98.1253, "RA_OF_ASC_NODE": 331.9888, "ARG_OF_PERICENTER": 88.5532, "MEAN_ANOMALY": 271.7245, "EPHEMERIS_TYPE": 0, "CLASSIFICATION_TYPE": "U", "NORAD_CAT_ID": 29709, "ELEMENT_SET_NO": 999, "REV_AT_EPOCH": 2275, "BSTAR": 0.00013296099, "MEAN_MOTION_DOT": 1.097e-05, "MEAN_MOTION_DDOT": 0}, "tle": {"line1": "1 29709U 07001A   25341.93105335  .00001097  00000+0  13296-3 0  9999", "line2": "2 29709  98.1253 331.9888 0013642  88.5532 271.7245 14.85658857 22755"}}, "geometry": {"type": "Point", "coordinates": [68.75794799651727, -81.82152084437199]}}, {"type": "Feature", "properties": {"norad_id": 31113, "name": "HAIYANG-1B", "group": "resource", "lat": -79.0219259935801, "lon": 15.965950061371958, "alt_km": 802.8535620869161, "timestamp": "2025-12-08T10:52:02.605890+00:00", "meta": {"OBJECT_NAME": "HAIYANG-1B", "OBJECT_ID": "2007-010A", "EPOCH": "2025-12-07T23:30:24.882624", "MEAN_MOTION": 14.30962449, "ECCENTRICITY": 0.00144508, "INCLINATION": 98.3309, "RA_OF_ASC_NODE": 326.4544, "ARG_OF_PERICENTER": 51.2119, "MEAN_ANOMALY": 309.0353, "EPHEMERIS_TYPE": 0, "CLASSIFICATION_TYPE": "U", "NORAD_CAT_ID": 31113, "ELEMENT_SET_NO": 999, "REV_AT_EPOCH": 97328, "BSTAR": 9.4169397e-05, "MEAN_MOTION_DOT": 2.06e-06, "MEAN_MOTION_DDOT": 0}, "tle": {"line1": "1 31113U 07010A   25341.97945466  .00000206  00000+0  94169-4 0  9992", "line2": "2 31113  98.3309 326.4544 0014450  51.2119 309.0353 14.30962449973288"}}, "geometry": {"type": "Point", "coordinates": [15.965950061371958, -79.0219259935801]}}, {"type": "Feature", "properties": {"norad_id": 31598, "name": "COSMO-SKYMED 1", "group": "resource", "lat": 68.55646439512435, "lon": 147.16697780993087, "alt_km": 572.760200139739, "timestamp": "2025-12-08T10:52:02.605902+00:00", "meta": {"OBJECT_NAME": "COSMO-SKYMED 1", "OBJECT_ID": "2007-023A", "EPOCH": "2025-12-07T23:18:59.696064", "MEAN_MOTION": 14.95709827, "ECCENTRICITY": 0.00010718, "INCLINATION": 97.8834, "RA_OF_ASC_NODE": 167.34, "ARG_OF_PERICENTER": 80.0402, "MEAN_ANOMALY": 280.094, "EPHEMERIS_TYPE": 0, "CLASSIFICATION_TYPE": "U", "NORAD_CAT_ID": 31598, "ELEMENT_SET_NO": 999, "REV_AT_EPOCH": 119, "BSTAR": 0.00044685146, "MEAN_MOTION_DOT": 4.917e-05, "MEAN_MOTION_DDOT": 0}, "tle": {"line1": "1 31598U 07023A   25341.97152426  .00004917  00000+0  44685-3 0  9999", "line2": "2 31598  97.8834 167.3400 0001071  80.0402 280.0940 14.95709827  1197"}}, "geometry": {"type": "Point", "coordinates": [147.16697780993087, 68.55646439512435]}}, {"type": "Feature", "properties": {"norad_id": 31698, "name": "TERRASAR-X", "group": "resource", "lat": 81.18191120440699, "lon": -69.557124194683, "alt_km": 499.77426540803935, "timestamp": "2025-12-08T10:52:02.605914+00:00", "meta": {"OBJECT_NAME": "TERRASAR-X", "OBJECT_ID": "2007-026A", "EPOCH": "2025-12-07T13:56:33.832032", "MEAN_MOTION": 15.19154381, "ECCENTRICITY": 0.0001715, "INCLINATION": 97.445, "RA_OF_ASC_NODE": 347.036, "ARG_OF_PERICENTER": 88.3312, "MEAN_ANOMALY": 271.8119, "EPHEMERIS_TYPE": 0, "CLASSIFICATION_TYPE": "U", "NORAD_CAT_ID": 31698, "ELEMENT_SET_NO": 999, "REV_AT_EPOCH": 2413, "BSTAR": 0.0001437554, "MEAN_MOTION_DOT": 2.953e-05, "MEAN_MOTION_DDOT": 0}, "tle": {"line1": "1 31698U 07026A   25341.58094713  .00002953  00000+0  14376-3 0  9996", "line2": "2 31698  97.4450 347.0360 0001715  88.3312 271.8119 15.19154381 24137"}}, "geometry": {"type": "Point", "coordinates": [-69.557124194683, 81.18191120440699]}}, {"type": "Feature", "properties": {"norad_id": 32060, "name": "WORLDVIEW-1 (WV-1)", "group": "resource", "lat": 1.979503934065944, "lon": 99.73816865880227, "alt_km": 494.9334149389697, "timestamp": "2025-12-08T10:52:02.605925+00:00", "meta": {"OBJECT_NAME": "WORLDVIEW-1 (WV-1)", "OBJECT_ID": "2007-041A", "EPOCH": "2025-12-07T20:40:54.132096", "MEAN_MOTION": 15.24570017, "ECCENTRICITY": 7.601e-05, "INCLINATION": 97.3846, "RA_OF_ASC_NODE": 99.4124, "ARG_OF_PERICENTER": 101.7388, "MEAN_ANOMALY": 258.3935, "EPHEMERIS_TYPE": 0, "CLASSIFICATION_TYPE": "U", "NORAD_CAT_ID": 32060, "ELEMENT_SET_NO": 999, "REV_AT_EPOCH": 1373, "BSTAR": 0.00054019353, "MEAN_MOTION_DOT": 0.00013249, "MEAN_MOTION_DDOT": 0}, "tle": {"line1": "1 32060U 07041A   25341.86173764  .00013249  00000+0  54019-3 0  9990", "line2": "2 32060  97.3846  99.4124 0000760 101.7388 258.3935 15.24570017 13731"}}, "geometry": {"type": "Point", "coordinates": [99.73816865880227, 1.979503934065944]}}]}